[
  {
    "OBJECT_NAME": "STARLINK-1884",
    "OBJECT_ID": "2020-088AX",
    "EPOCH": "2023-10-31T20:36:34.060320",
    "MEAN_MOTION": 15.06412292,
    "ECCENTRICITY": 0.0001141,
    "INCLINATION": 53.0541,
    "RA_OF_ASC_NODE": 201.5523,
    "ARG_OF_PERICENTER": 95.0809,
    "MEAN_ANOMALY": 265.0311,
    "EPHEMERIS_TYPE": 0,
    "CLASSIFICATION_TYPE": "U",
    "NORAD_CAT_ID": 47167,
    "ELEMENT_SET_NO": 999,
    "REV_AT_EPOCH": 16254,
    "BSTAR": 0.001593,
    "MEAN_MOTION_DOT": 0.00023534,
    "MEAN_MOTION_DDOT": 0
  },
  {
    "OBJECT_NAME": "STARLINK-1887",
    "OBJECT_ID": "2020-088BA",
    "EPOCH": "2023-10-31T10:42:06.144480",
    "MEAN_MOTION": 15.06394286,
    "ECCENTRICITY": 0.0001423,
    "INCLINATION": 53.0539,
    "RA_OF_ASC_NODE": 203.4058,
    "ARG_OF_PERICENTER": 101.0746,
    "MEAN_ANOMALY": 259.0403,
    "EPHEMERIS_TYPE": 0,
    "CLASSIFICATION_TYPE": "U",
    "NORAD_CAT_ID": 47170,
    "ELEMENT_SET_NO": 999,
    "REV_AT_EPOCH": 16218,
    "BSTAR": 0.0013052,
    "MEAN_MOTION_DOT": 0.0001921,
    "MEAN_MOTION_DDOT": 0
  },
  {
    "OBJECT_NAME": "STARLINK-1888",
    "OBJECT_ID": "2020-088BB",
    "EPOCH": "2023-10-31T09:34:25.772160",
    "MEAN_MOTION": 15.06420072,
    "ECCENTRICITY": 0.0001195,
    "INCLINATION": 53.0525,
    "RA_OF_ASC_NODE": 193.616,
    "ARG_OF_PERICENTER": 86.6479,
    "MEAN_ANOMALY": 273.4647,
    "EPHEMERIS_TYPE": 0,
    "CLASSIFICATION_TYPE": "U",
    "NORAD_CAT_ID": 47171,
    "ELEMENT_SET_NO": 999,
    "REV_AT_EPOCH": 16231,
    "BSTAR": 0.00084852,
    "MEAN_MOTION_DOT": 0.00012387,
    "MEAN_MOTION_DDOT": 0
  },
  {
    "OBJECT_NAME": "STARLINK-1890",
    "OBJECT_ID": "2020-088BD",
    "EPOCH": "2023-10-31T10:58:01.655040",
    "MEAN_MOTION": 15.06394593,
    "ECCENTRICITY": 0.0001388,
    "INCLINATION": 53.0533,
    "RA_OF_ASC_NODE": 203.3558,
    "ARG_OF_PERICENTER": 100.9187,
    "MEAN_ANOMALY": 259.1958,
    "EPHEMERIS_TYPE": 0,
    "CLASSIFICATION_TYPE": "U",
    "NORAD_CAT_ID": 47173,
    "ELEMENT_SET_NO": 999,
    "REV_AT_EPOCH": 16218,
    "BSTAR": 0.0014308,
    "MEAN_MOTION_DOT": 0.00021091,
    "MEAN_MOTION_DDOT": 0
  },
  {
    "OBJECT_NAME": "STARLINK-1891",
    "OBJECT_ID": "2020-088BE",
    "EPOCH": "2023-10-31T20:47:11.851296",
    "MEAN_MOTION": 15.0641741,
    "ECCENTRICITY": 0.000167,
    "INCLINATION": 53.0541,
    "RA_OF_ASC_NODE": 201.5191,
    "ARG_OF_PERICENTER": 66.9228,
    "MEAN_ANOMALY": 293.1937,
    "EPHEMERIS_TYPE": 0,
    "CLASSIFICATION_TYPE": "U",
    "NORAD_CAT_ID": 47174,
    "ELEMENT_SET_NO": 999,
    "REV_AT_EPOCH": 16253,
    "BSTAR": 0.0023713,
    "MEAN_MOTION_DOT": 0.00035233,
    "MEAN_MOTION_DDOT": 0
  },
  {
    "OBJECT_NAME": "STARLINK-1895",
    "OBJECT_ID": "2020-088BF",
    "EPOCH": "2023-10-31T09:35:45.699072",
    "MEAN_MOTION": 15.06388603,
    "ECCENTRICITY": 0.0001491,
    "INCLINATION": 53.0528,
    "RA_OF_ASC_NODE": 183.6125,
    "ARG_OF_PERICENTER": 105.3229,
    "MEAN_ANOMALY": 254.7924,
    "EPHEMERIS_TYPE": 0,
    "CLASSIFICATION_TYPE": "U",
    "NORAD_CAT_ID": 47175,
    "ELEMENT_SET_NO": 999,
    "REV_AT_EPOCH": 16245,
    "BSTAR": 0.0014136,
    "MEAN_MOTION_DOT": 0.0002083,
    "MEAN_MOTION_DDOT": 0
  },
  {
    "OBJECT_NAME": "STARLINK-1907",
    "OBJECT_ID": "2020-088BH",
    "EPOCH": "2023-10-31T20:21:59.230944",
    "MEAN_MOTION": 15.06372117,
    "ECCENTRICITY": 0.0001624,
    "INCLINATION": 53.0544,
    "RA_OF_ASC_NODE": 191.5953,
    "ARG_OF_PERICENTER": 116.4467,
    "MEAN_ANOMALY": 243.6689,
    "EPHEMERIS_TYPE": 0,
    "CLASSIFICATION_TYPE": "U",
    "NORAD_CAT_ID": 47177,
    "ELEMENT_SET_NO": 999,
    "REV_AT_EPOCH": 16267,
    "BSTAR": 0.0012045,
    "MEAN_MOTION_DOT": 0.00017691,
    "MEAN_MOTION_DDOT": 0
  },
  {
    "OBJECT_NAME": "STARLINK-1912",
    "OBJECT_ID": "2020-088BJ",
    "EPOCH": "2023-10-31T10:20:52.655136",
    "MEAN_MOTION": 15.06382114,
    "ECCENTRICITY": 0.0001507,
    "INCLINATION": 53.0533,
    "RA_OF_ASC_NODE": 203.4713,
    "ARG_OF_PERICENTER": 90.9694,
    "MEAN_ANOMALY": 269.1467,
    "EPHEMERIS_TYPE": 0,
    "CLASSIFICATION_TYPE": "U",
    "NORAD_CAT_ID": 47178,
    "ELEMENT_SET_NO": 999,
    "REV_AT_EPOCH": 16217,
    "BSTAR": 0.001237,
    "MEAN_MOTION_DOT": 0.00018183,
    "MEAN_MOTION_DDOT": 0
  },
  {
    "OBJECT_NAME": "STARLINK-1913",
    "OBJECT_ID": "2020-088BK",
    "EPOCH": "2023-10-31T11:39:10.069344",
    "MEAN_MOTION": 15.06383874,
    "ECCENTRICITY": 0.0001836,
    "INCLINATION": 53.0528,
    "RA_OF_ASC_NODE": 213.2255,
    "ARG_OF_PERICENTER": 112.8517,
    "MEAN_ANOMALY": 247.2666,
    "EPHEMERIS_TYPE": 0,
    "CLASSIFICATION_TYPE": "U",
    "NORAD_CAT_ID": 47179,
    "ELEMENT_SET_NO": 999,
    "REV_AT_EPOCH": 16204,
    "BSTAR": 0.0021791,
    "MEAN_MOTION_DOT": 0.00032312,
    "MEAN_MOTION_DDOT": 0
  },
  {
    "OBJECT_NAME": "STARLINK-1927",
    "OBJECT_ID": "2020-088BM",
    "EPOCH": "2023-10-31T20:18:49.172544",
    "MEAN_MOTION": 15.26090936,
    "ECCENTRICITY": 0.0003807,
    "INCLINATION": 53.0781,
    "RA_OF_ASC_NODE": 159.2928,
    "ARG_OF_PERICENTER": 180.2998,
    "MEAN_ANOMALY": 179.7998,
    "EPHEMERIS_TYPE": 0,
    "CLASSIFICATION_TYPE": "U",
    "NORAD_CAT_ID": 47181,
    "ELEMENT_SET_NO": 999,
    "REV_AT_EPOCH": 16309,
    "BSTAR": 0.0003813,
    "MEAN_MOTION_DOT": 9.631e-5,
    "MEAN_MOTION_DDOT": 0
  },
  {
    "OBJECT_NAME": "STARLINK-2011",
    "OBJECT_ID": "2021-005B",
    "EPOCH": "2023-10-31T18:18:33.683040",
    "MEAN_MOTION": 15.06403575,
    "ECCENTRICITY": 0.0001572,
    "INCLINATION": 53.054,
    "RA_OF_ASC_NODE": 321.9815,
    "ARG_OF_PERICENTER": 86.2023,
    "MEAN_ANOMALY": 273.9146,
    "EPHEMERIS_TYPE": 0,
    "CLASSIFICATION_TYPE": "U",
    "NORAD_CAT_ID": 47350,
    "ELEMENT_SET_NO": 999,
    "REV_AT_EPOCH": 15410,
    "BSTAR": 0.00043459,
    "MEAN_MOTION_DOT": 6.198e-5,
    "MEAN_MOTION_DDOT": 0
  },
  {
    "OBJECT_NAME": "STARLINK-2017",
    "OBJECT_ID": "2021-005C",
    "EPOCH": "2023-10-31T07:50:52.715328",
    "MEAN_MOTION": 15.06424137,
    "ECCENTRICITY": 0.0001823,
    "INCLINATION": 53.0534,
    "RA_OF_ASC_NODE": 283.9273,
    "ARG_OF_PERICENTER": 85.5453,
    "MEAN_ANOMALY": 274.5744,
    "EPHEMERIS_TYPE": 0,
    "CLASSIFICATION_TYPE": "U",
    "NORAD_CAT_ID": 47351,
    "ELEMENT_SET_NO": 999,
    "REV_AT_EPOCH": 15392,
    "BSTAR": 0.0019025,
    "MEAN_MOTION_DOT": 0.00028189,
    "MEAN_MOTION_DDOT": 0
  },
  {
    "OBJECT_NAME": "STARLINK-2034",
    "OBJECT_ID": "2021-005D",
    "EPOCH": "2023-10-31T11:29:51.631584",
    "MEAN_MOTION": 15.06412527,
    "ECCENTRICITY": 0.0001905,
    "INCLINATION": 53.054,
    "RA_OF_ASC_NODE": 323.2559,
    "ARG_OF_PERICENTER": 84.6375,
    "MEAN_ANOMALY": 275.4832,
    "EPHEMERIS_TYPE": 0,
    "CLASSIFICATION_TYPE": "U",
    "NORAD_CAT_ID": 47352,
    "ELEMENT_SET_NO": 999,
    "REV_AT_EPOCH": 15338,
    "BSTAR": 0.00071108,
    "MEAN_MOTION_DOT": 0.00010329,
    "MEAN_MOTION_DDOT": 0
  },
  {
    "OBJECT_NAME": "STARLINK-2045",
    "OBJECT_ID": "2021-005E",
    "EPOCH": "2023-10-31T15:12:08.407296",
    "MEAN_MOTION": 15.06396639,
    "ECCENTRICITY": 0.0001464,
    "INCLINATION": 53.0528,
    "RA_OF_ASC_NODE": 267.5618,
    "ARG_OF_PERICENTER": 100.7354,
    "MEAN_ANOMALY": 259.38,
    "EPHEMERIS_TYPE": 0,
    "CLASSIFICATION_TYPE": "U",
    "NORAD_CAT_ID": 47353,
    "ELEMENT_SET_NO": 999,
    "REV_AT_EPOCH": 15484,
    "BSTAR": 0.00095368,
    "MEAN_MOTION_DOT": 0.00013951,
    "MEAN_MOTION_DDOT": 0
  }
]
