STARLINK-1884           
1 47167U 20088AX  23304.85872755  .00023534  00000+0  15930-2 0  9998
2 47167  53.0541 201.5523 0001141  95.0809 265.0311 15.06412292162549
STARLINK-1887           
1 47170U 20088BA  23304.44590445  .00019210  00000+0  13052-2 0  9999
2 47170  53.0539 203.4058 0001423 101.0746 259.0403 15.06394286162182
STARLINK-1888           
1 47171U 20088BB  23304.39890940  .00012387  00000+0  84852-3 0  9992
2 47171  53.0525 193.6160 0001195  86.6479 273.4647 15.06420072162317
STARLINK-1890           
1 47173U 20088BD  23304.45696360  .00021091  00000+0  14308-2 0  9991
2 47173  53.0533 203.3558 0001388 100.9187 259.1958 15.06394593162187
STARLINK-1891           
1 47174U 20088BE  23304.86610939  .00035233  00000+0  23713-2 0  9998
2 47174  53.0541 201.5191 0001670  66.9228 293.1937 15.06417410162539
STARLINK-1895           
1 47175U 20088BF  23304.39983448  .00020830  00000+0  14136-2 0  9991
2 47175  53.0528 183.6125 0001491 105.3229 254.7924 15.06388603162453
STARLINK-1907           
1 47177U 20088BH  23304.84860221  .00017691  00000+0  12045-2 0  9994
2 47177  53.0544 191.5953 0001624 116.4467 243.6689 15.06372117162677
STARLINK-1912           
1 47178U 20088BJ  23304.43116499  .00018183  00000+0  12370-2 0  9999
2 47178  53.0533 203.4713 0001507  90.9694 269.1467 15.06382114162171
STARLINK-1913           
1 47179U 20088BK  23304.48553321  .00032312  00000+0  21791-2 0  9991
2 47179  53.0528 213.2255 0001836 112.8517 247.2666 15.06383874162047
STARLINK-1927           
1 47181U 20088BM  23304.84640246  .00009631  00000+0  38130-3 0  9991
2 47181  53.0781 159.2928 0003807 180.2998 179.7998 15.26090936163098
STARLINK-2011           
1 47350U 21005B   23304.76288985  .00006198  00000+0  43459-3 0  9993
2 47350  53.0540 321.9815 0001572  86.2023 273.9146 15.06403575154102
STARLINK-2017           
1 47351U 21005C   23304.32699902  .00028189  00000+0  19025-2 0  9996
2 47351  53.0534 283.9273 0001823  85.5453 274.5744 15.06424137153926
STARLINK-2034           
1 47352U 21005D   23304.47906981  .00010329  00000+0  71108-3 0  9999
2 47352  53.0540 323.2559 0001905  84.6375 275.4832 15.06412527153381
STARLINK-2045           
1 47353U 21005E   23304.63343064  .00013951  00000+0  95368-3 0  9993
2 47353  53.0528 267.5618 0001464 100.7354 259.3800 15.06396639154844
